IRIDIUM 144             
1 43249U 18030A   24140.84677702  .00000676  00000+0  23439-3 0  9998
2 43249  86.3977 247.2986 0002045 100.1159 260.0267 14.34220101321467
IRIDIUM 149             
1 43250U 18030B   24140.36474387  .00000553  00000+0  19038-3 0  9995
2 43250  86.3978 247.4755 0002303  99.6003 260.5453 14.34213558321395
IRIDIUM 157             
1 43251U 18030C   24140.38378154  .00000758  00000+0  26353-3 0  9998
2 43251  86.3978 247.5038 0002538  93.7037 266.4449 14.34221220321376
IRIDIUM 140             
1 43252U 18030D   24140.82144051  .00000830  00000+0  28927-3 0  9995
2 43252  86.3980 247.3356 0001754  96.2934 263.8462 14.34225499321495
IRIDIUM 145             
1 43253U 18030E   24140.39012511  .00000594  00000+0  20506-3 0  9995
2 43253  86.3982 247.4896 0002088 106.9767 253.1657 14.34220696321360
IRIDIUM 146             
1 43254U 18030F   24140.92922974  .00000323  00000+0  10831-3 0  9998
2 43254  86.3982 247.2792 0002094 101.3168 258.8263 14.34218030321459
IRIDIUM 148             
1 43255U 18030G   24140.68821457  .00000569  00000+0  19594-3 0  9993
2 43255  86.3980 247.4113 0002399  98.5169 261.6298 14.34217938321460
IRIDIUM 142             
1 43256U 18030H   24140.37743361  .00000741  00000+0  25758-3 0  9998
2 43256  86.3963 247.4563 0002257 105.2014 254.9431 14.34216727321378
